EUTELSAT 8 WEST B       
1 40875U 15039B   25328.72523123 -.00000046  00000+0  00000+0 0  9996
2 40875   0.0669   1.5996 0004202 246.4626  68.9677  1.00271465 37600
EUTELSAT 9B             
1 41310U 16005A   25328.72861124  .00000082  00000+0  00000+0 0  9990
2 41310   0.0460  64.8761 0004292 191.9746  78.4051  1.00271423 36067
EUTELSAT 65 WEST A      
1 41382U 16014A   25328.71370448 -.00000256  00000+0  00000+0 0  9996
2 41382   0.0595  24.5654 0002525 227.2069   3.8927  1.00269636 35489
EUTELSAT 117 WEST B     
1 41589U 16038B   25328.63223733  .00000008  00000+0  00000+0 0  9990
2 41589   0.0061 158.6523 0000411 104.9921 270.8030  1.00272143 34612
EUTELSAT 172B           
1 42741U 17029B   25328.26143983  .00000015  00000+0  00000+0 0  9997
2 42741   0.0317 163.1238 0000291 280.4229 246.0759  1.00271991 31674
EUTELSAT 7C             
1 44334U 19034B   25328.51402634  .00000068  00000+0  00000+0 0  9992
2 44334   0.0763 184.6942 0003193  32.2953  38.8284  1.00270295  4788
EUTELSAT 5 WEST B       
1 44624U 19067A   25328.72583788 -.00000022  00000+0  00000+0 0  9994
2 44624   0.0667 335.5266 0003144 266.4538  78.2772  1.00271404 22384
EUTELSAT KONNECT        
1 45027U 20005B   25328.72817791  .00000070  00000+0  00000+0 0  9992
2 45027   0.0664 101.9594 0001196 179.4086  51.9261  1.00273565 22273
